{
    "links": {
        "self": "http://www.neowsapp.com/rest/v1/neo/3177230?api_key=iIulBulltgU6a56xZRHN4H3l9WmuAYTsLGpBGhQ2"
    },
    "id": "3177230",
    "neo_reference_id": "3177230",
    "name": "(2004 FC18)",
    "designation": "2004 FC18",
    "nasa_jpl_url": "http://ssd.jpl.nasa.gov/sbdb.cgi?sstr=3177230",
    "absolute_magnitude_h": 24.4,
    "estimated_diameter": {
        "kilometers": {
            "estimated_diameter_min": 0.0350392641,
            "estimated_diameter_max": 0.0783501764
        },
        "meters": {
            "estimated_diameter_min": 35.0392641108,
            "estimated_diameter_max": 78.3501764334
        },
        "miles": {
            "estimated_diameter_min": 0.0217723826,
            "estimated_diameter_max": 0.0486845275
        },
        "feet": {
            "estimated_diameter_min": 114.9582192654,
            "estimated_diameter_max": 257.0543928497
        }
    },
    "is_potentially_hazardous_asteroid": false,
    "close_approach_data": [
        {
            "close_approach_date": "2004-04-03",
            "close_approach_date_full": "2004-Apr-03 16:22",
            "epoch_date_close_approach": 1081009320000,
            "relative_velocity": {
                "kilometers_per_second": "18.5453208403",
                "kilometers_per_hour": "66763.1550252168",
                "miles_per_hour": "41484.0281877521"
            },
            "miss_distance": {
                "astronomical": "0.0444511328",
                "lunar": "17.2914906592",
                "kilometers": "6649794.785967136",
                "miles": "4131990.8770370368"
            },
            "orbiting_body": "Earth"
        }
    ],
    "orbital_data": {
        "orbit_id": "9",
        "orbit_determination_date": "2017-04-06 09:13:00",
        "first_observation_date": "2004-03-27",
        "last_observation_date": "2004-04-01",
        "data_arc_in_days": 5,
        "observations_used": 36,
        "orbit_uncertainty": "9",
        "minimum_orbit_intersection": ".0199378",
        "jupiter_tisserand_invariant": "3.628",
        "epoch_osculation": "2453093.5",
        "eccentricity": ".6488296669780018",
        "semi_major_axis": "1.913925133595888",
        "inclination": "9.836640209354673",
        "ascending_node_longitude": "181.6115533127045",
        "orbital_period": "967.1322049525066",
        "perihelion_distance": ".6721137265440402",
        "perihelion_argument": "92.2042001699823",
        "aphelion_distance": "3.155736540647735",
        "perihelion_time": "2453146.733481207902",
        "mean_anomaly": "340.1846602390975",
        "mean_motion": ".3722345281818825",
        "equinox": "J2000",
        "orbit_class": {
            "orbit_class_type": "APO",
            "orbit_class_description": "Near-Earth asteroid orbits which cross the Earth’s orbit similar to that of 1862 Apollo",
            "orbit_class_range": "a (semi-major axis) > 1.0 AU; q (perihelion) < 1.017 AU"
        }
    },
    "is_sentry_object": false
}